IRIDIUM 171             
1 43929U 19002H   25356.08883911  .00000275  00000+0  91248-4 0  9999
2 43929  86.3969  67.8956 0002433  97.4264 262.7209 14.34217564363574
IRIDIUM 170             
1 43930U 19002J   25356.10930925  .00000899  00000+0  13867-3 0  9994
2 43930  86.6081  67.5971 0002306  91.5270 268.6211 14.72257153373208
IRIDIUM 167             
1 43931U 19002K   25356.15225726  .00000130  00000+0  39378-4 0  9990
2 43931  86.3959  67.6030 0002579 101.5289 258.6197 14.34218247363582
IRIDIUM 181             
1 56726U 23068S   25356.10851914  .00000375  00000+0  10544-3 0  9996
2 56726  86.4518 130.8134 0002281  83.1127 277.0334 14.43313599136890
IRIDIUM 177             
1 56727U 23068T   25355.59798868  .00000989  00000+0  12666-3 0  9995
2 56727  86.1958  53.1228 0002209  86.3205 273.8269 14.80227898140094
IRIDIUM 174             
1 56728U 23068U   25356.16492038  .00000960  00000+0  14840-3 0  9995
2 56728  86.6089  67.7036 0002054  90.1690 269.9763 14.72251407139976
IRIDIUM 178             
1 56729U 23068V   25355.72225176  .00001220  00000+0  15721-3 0  9993
2 56729  86.6544  99.5466 0002489  91.9566 268.1941 14.80223911140111
IRIDIUM 179             
1 56730U 23068W   25355.85209235  .00001274  00000+0  16426-3 0  9999
2 56730  86.6788 107.9431 0002408  89.4574 270.6923 14.80234758140132
